STARLINK-37536          
1 69508U 26133A   26193.41749219  .00033365  00000+0  60474-3 0  9994
2 69508  53.1600 198.1375 0000785 246.9834 113.1092 15.49339706  4722
STARLINK-37341          
1 69509U 26133B   26193.35484330  .00046301  00000+0  83437-3 0  9996
2 69509  53.1584 198.4555 0002041  88.5342 271.5901 15.49350910  4726
STARLINK-36536          
1 69510U 26133C   26193.83335647  .00048460  00000+0  13922-2 0  9996
2 69510  53.1589 195.6504 0001204  80.5267 322.9620 15.35377442  6044
STARLINK-37420          
1 69511U 26133D   26193.83335647  .00052079  00000+0  15855-2 0  9995
2 69511  53.1591 195.3983 0001222  77.6820  89.7162 15.33515632  5993
STARLINK-37511          
1 69512U 26133E   26193.83335647  .00044934  00000+0  13703-2 0  9997
2 69512  53.1598 195.4597 0000986  97.9973  38.6818 15.33527414  5995
STARLINK-37552          
1 69513U 26133F   26193.48328487  .00034271  00000+0  62115-3 0  9998
2 69513  53.1583 197.8298 0001947 112.6991 247.4224 15.49326464  6000
STARLINK-37607          
1 69514U 26133G   26193.83335647  .00054858  00000+0  15727-2 0  9993
2 69514  53.1596 195.5422 0001484 117.3872 337.2790 15.35387433  5996
STARLINK-37232          
1 69515U 26133H   26193.39402423  .00027373  00000+0  49858-3 0  9997
2 69515  53.1579 197.9758 0000859  91.5315 268.5792 15.49304749  4728
STARLINK-37323          
1 69516U 26133J   26193.83335647  .00058062  00000+0  17657-2 0  9990
2 69516  53.1593 195.2776 0001643 117.9418 106.9940 15.33502280  5998
STARLINK-37357          
1 69517U 26133K   26193.41805480  .00044149  00000+0  79615-3 0  9996
2 69517  53.1636 198.1349 0000667 336.9328  23.1651 15.49352707  5985
STARLINK-37408          
1 69518U 26133L   26192.51416289 -.00353335  00000+0 -67416-2 0  9999
2 69518  53.1597 201.7144 0000903 166.7623 193.3410 15.48863350  5866
STARLINK-37570          
1 69519U 26133M   26193.59019002  .00049264  00000+0  88651-3 0  9997
2 69519  53.1587 197.0647 0001137  79.4452 280.6685 15.49364746  6020
STARLINK-37510          
1 69520U 26133N   26193.39200906  .00025249  00000+0  46015-3 0  9997
2 69520  53.1619 197.9615 0000259 156.3885 203.7136 15.49333760  5995
STARLINK-37586          
1 69521U 26133P   26193.83335647  .00046964  00000+0  14319-2 0  9996
2 69521  53.1590 195.2235 0001323 108.9745 139.8218 15.33514340  5992
STARLINK-37379          
1 69522U 26133Q   26193.36476977  .00046104  00000+0  83088-3 0  9993
2 69522  53.1594 197.7834 0000953  28.0253 332.0807 15.49351053  5991
STARLINK-37429          
1 69523U 26133R   26193.53120625  .00033067  00000+0  59985-3 0  9992
2 69523  53.1592 197.4082 0001311  67.6681 292.4467 15.49320269  6015
STARLINK-37352          
1 69524U 26133S   26193.42788663  .00033853  00000+0  61341-3 0  9995
2 69524  53.1591 197.4644 0000336 275.6893  84.4077 15.49340479  6001
STARLINK-37490          
1 69525U 26133T   26193.83335647  .00056377  00000+0  16179-2 0  9995
2 69525  53.1595 195.2129 0001959  90.7625 163.7073 15.35343088  6046
STARLINK-37438          
1 69526U 26133U   26192.99037005  .00037158  00000+0  67234-3 0  9994
2 69526  53.1590 199.7119 0000938 102.1197 257.9917 15.49335936  5936
STARLINK-37484          
1 69527U 26133V   26193.83335647  .00046837  00000+0  13463-2 0  9990
2 69527  53.1589 195.2018 0000999  68.4669 190.1148 15.35375547  6043
STARLINK-37523          
1 69528U 26133W   26193.42512146  .00030259  00000+0  54981-3 0  9999
2 69528  53.1597 197.4458 0000774  34.5832 325.5228 15.49318945  6005
STARLINK-37369          
1 69529U 26133X   26193.48611250  .00056160  00000+0  10101-2 0  9996
2 69529  53.1591 197.1102 0000802 102.2244 257.8855 15.49321014  6010
STARLINK-37670          
1 69530U 26133Y   26193.04953446  .00035781  00000+0  64784-3 0  9999
2 69530  53.1602 199.3671 0001298  99.7548 260.3608 15.49335434  5944
STARLINK-37897          
1 69531U 26133Z   26193.83335647  .00046830  00000+0  13477-2 0  9993
2 69531  53.1593 195.0768 0000898  65.9927 253.4083 15.35338601  6007
STARLINK-37933          
1 69532U 26133AA  26193.83335647  .00049659  00000+0  14259-2 0  9995
2 69532  53.1581 195.7693 0001389 107.8453 225.3508 15.35383338  6002
STARLINK-37890          
1 69533U 26133AB  26193.05066091  .00013744  00000+0  41710-3 0  9993
2 69533  53.1554 199.3557 0001825 106.3184 253.8019 15.34403888  5949
STARLINK-37407          
1 69534U 26133AC  26193.83335647  .00045131  00000+0  13761-2 0  9995
2 69534  53.1587 195.5546 0001184  93.2618 343.0727 15.33530269  6049
STARLINK-37888          
1 69535U 26133AD  26193.83335647  .00047356  00000+0  14051-2 0  9990
2 69535  53.1582 195.6004 0001411  70.9057 341.6188 15.34371332  6003
STARLINK-37889          
1 69536U 26133AE  26193.39839290  .00026508  00000+0  48260-3 0  9991
2 69536  53.1598 198.0041 0002148  73.8474 286.2771 15.49335058  5992
STARLINK-37880          
1 69546U 26135A   26193.83335647  .00034778  00000+0  63889-3 0  9992
2 69546  97.2848 222.1058 0000491 175.6225 304.3577 15.49162352  5420
