OBJECT_NAME,OBJECT_ID,EPOCH,MEAN_MOTION,ECCENTRICITY,INCLINATION,RA_OF_ASC_NODE,ARG_OF_PERICENTER,MEAN_ANOMALY,EPHEMERIS_TYPE,CLASSIFICATION_TYPE,NORAD_CAT_ID,ELEMENT_SET_NO,REV_AT_EPOCH,BSTAR,MEAN_MOTION_DOT,MEAN_MOTION_DDOT
STARLINK-37536,2026-133A,2026-07-12T10:01:11.325216,15.49339706,.00007856,53.1600,198.1375,246.9834,113.1092,0,U,69508,999,472,.60473568E-3,.33365E-3,0
STARLINK-37341,2026-133B,2026-07-12T08:30:58.461120,15.49350910,.00020411,53.1584,198.4555,88.5342,271.5901,0,U,69509,999,472,.83437082E-3,.46301E-3,0
STARLINK-36536,2026-133C,2026-07-12T20:00:01.999008,15.35377442,.0001204,53.1589,195.6504,80.5267,322.9620,0,U,69510,999,604,.13922E-2,.4846E-3,0
STARLINK-37420,2026-133D,2026-07-12T20:00:01.999008,15.33515632,.0001222,53.1591,195.3983,77.6820,89.7162,0,U,69511,999,599,.15855E-2,.52079E-3,0
STARLINK-37511,2026-133E,2026-07-12T20:00:01.999008,15.33527414,.0000986,53.1598,195.4597,97.9973,38.6818,0,U,69512,999,599,.13703E-2,.44934E-3,0
STARLINK-37552,2026-133F,2026-07-12T11:35:55.812768,15.49326464,.00019476,53.1583,197.8298,112.6991,247.4224,0,U,69513,999,600,.62114985E-3,.34271E-3,0
STARLINK-37607,2026-133G,2026-07-12T20:00:01.999008,15.35387433,.0001484,53.1596,195.5422,117.3872,337.2790,0,U,69514,999,599,.15727E-2,.54858E-3,0
STARLINK-37232,2026-133H,2026-07-12T09:27:23.693472,15.49304749,.00008596,53.1579,197.9758,91.5315,268.5792,0,U,69515,999,472,.4985757E-3,.27373E-3,0
STARLINK-37323,2026-133J,2026-07-12T20:00:01.999008,15.33502280,.0001643,53.1593,195.2776,117.9418,106.9940,0,U,69516,999,599,.17657E-2,.58062E-3,0
STARLINK-37357,2026-133K,2026-07-12T10:01:59.934720,15.49352707,.00006673,53.1636,198.1349,336.9328,23.1651,0,U,69517,999,598,.79614836E-3,.44149E-3,0
STARLINK-37408,2026-133L,2026-07-11T12:20:23.673696,15.48863350,.00009033,53.1597,201.7144,166.7623,193.3410,0,U,69518,999,586,-.67415928E-2,-.353335E-2,0
STARLINK-37570,2026-133M,2026-07-12T14:09:52.417728,15.49364746,.0001137,53.1587,197.0647,79.4452,280.6685,0,U,69519,999,602,.88651E-3,.49264E-3,0
STARLINK-37510,2026-133N,2026-07-12T09:24:29.582784,15.49333760,.00002599,53.1619,197.9615,156.3885,203.7136,0,U,69520,999,599,.4601527E-3,.25249E-3,0
STARLINK-37586,2026-133P,2026-07-12T20:00:01.999008,15.33514340,.0001323,53.1590,195.2235,108.9745,139.8218,0,U,69521,999,599,.14319E-2,.46964E-3,0
STARLINK-37379,2026-133Q,2026-07-12T08:45:16.108128,15.49351053,.00009534,53.1594,197.7834,28.0253,332.0807,0,U,69522,999,599,.83088411E-3,.46104E-3,0
STARLINK-37429,2026-133R,2026-07-12T12:44:56.220000,15.49320269,.00013117,53.1592,197.4082,67.6681,292.4467,0,U,69523,999,601,.59985181E-3,.33067E-3,0
STARLINK-37352,2026-133S,2026-07-12T10:16:09.404832,15.49340479,.00003364,53.1591,197.4644,275.6893,84.4077,0,U,69524,999,600,.61340538E-3,.33853E-3,0
STARLINK-37490,2026-133T,2026-07-12T20:00:01.999008,15.35343088,.0001959,53.1595,195.2129,90.7625,163.7073,0,U,69525,999,604,.16179E-2,.56377E-3,0
STARLINK-37438,2026-133U,2026-07-11T23:46:07.972320,15.49335936,.00009384,53.1590,199.7119,102.1197,257.9917,0,U,69526,999,593,.67234235E-3,.37158E-3,0
STARLINK-37484,2026-133V,2026-07-12T20:00:01.999008,15.35375547,.0000999,53.1589,195.2018,68.4669,190.1148,0,U,69527,999,604,.13463E-2,.46837E-3,0
STARLINK-37523,2026-133W,2026-07-12T10:12:10.494144,15.49318945,.00007741,53.1597,197.4458,34.5832,325.5228,0,U,69528,999,600,.54981398E-3,.30259E-3,0
STARLINK-37369,2026-133X,2026-07-12T11:40:00.120000,15.49321014,.0000802,53.1591,197.1102,102.2244,257.8855,0,U,69529,999,601,.10101452E-2,.5616E-3,0
STARLINK-37670,2026-133Y,2026-07-12T01:11:19.777344,15.49335434,.00012983,53.1602,199.3671,99.7548,260.3608,0,U,69530,999,594,.64784023E-3,.35781E-3,0
STARLINK-37897,2026-133Z,2026-07-12T20:00:01.999008,15.35338601,.0000898,53.1593,195.0768,65.9927,253.4083,0,U,69531,999,600,.13477E-2,.4683E-3,0
STARLINK-37933,2026-133AA,2026-07-12T20:00:01.999008,15.35383338,.0001389,53.1581,195.7693,107.8453,225.3508,0,U,69532,999,600,.14259E-2,.49659E-3,0
STARLINK-37890,2026-133AB,2026-07-12T01:12:57.102624,15.34403888,.00018256,53.1554,199.3557,106.3184,253.8019,0,U,69533,999,594,.41710297E-3,.13744E-3,0
STARLINK-37407,2026-133AC,2026-07-12T20:00:01.999008,15.33530269,.0001184,53.1587,195.5546,93.2618,343.0727,0,U,69534,999,604,.13761E-2,.45131E-3,0
STARLINK-37888,2026-133AD,2026-07-12T20:00:01.999008,15.34371332,.0001411,53.1582,195.6004,70.9057,341.6188,0,U,69535,999,600,.14051E-2,.47356E-3,0
STARLINK-37889,2026-133AE,2026-07-12T09:33:41.146560,15.49335058,.00021486,53.1598,198.0041,73.8474,286.2771,0,U,69536,999,599,.48259645E-3,.26508E-3,0
STARLINK-37880,2026-135A,2026-07-12T20:00:01.999008,15.49162352,.0000491,97.2848,222.1058,175.6225,304.3577,0,U,69546,999,542,.63889E-3,.34778E-3,0
